start=new Date('2022-03-14T00:00:00.000Z').valueOf();
sats=[{"TLE_LINE2":"2 47868  53.0547 271.5769 0001414  78.4336 281.6811 15.06407655 57465","SITE":"AFETR","LAUNCH_DATE":"2021-03-14","ARG_OF_PERICENTER":"78.4336","PERIAPSIS":"546.211","RA_OF_ASC_NODE":"271.5769","MEAN_MOTION":"15.06407655","TIME_SYSTEM":"UTC","FILE":"3358388","EPOCH":"2022-03-13T20:37:04.687392","ELEMENT_SET_NO":"999","CLASSIFICATION_TYPE":"U","OBJECT_NAME":"STARLINK-2323","MEAN_MOTION_DOT":"0.00000179","ECCENTRICITY":"0.00014140","EPHEMERIS_TYPE":"0","GP_ID":"198688331","SEMIMAJOR_AXIS":"6925.325","REV_AT_EPOCH":"5746","TLE_LINE1":"1 47868U 21021J   22072.85908203  .00000179  00000-0  30893-4 0  9991","BSTAR":"0.00003089300000","MEAN_ANOMALY":"281.6811","PERIOD":"95.592","REF_FRAME":"TEME","APOAPSIS":"548.169","MEAN_ELEMENT_THEORY":"SGP4","CENTER_NAME":"EARTH","COUNTRY_CODE":"US","INCLINATION":"53.0547","NORAD_CAT_ID":"47868","DECAY_DATE":null,"MEAN_MOTION_DDOT":"0.0000000000000","OBJECT_TYPE":"PAYLOAD","RCS_SIZE":"LARGE","OBJECT_ID":"2021-021J"},{"ECCENTRICITY":"0.00016430","EPHEMERIS_TYPE":"0","CLASSIFICATION_TYPE":"U","MEAN_MOTION_DOT":"-0.00001862","OBJECT_NAME":"STARLINK-2324","TIME_SYSTEM":"UTC","MEAN_MOTION":"15.06398907","EPOCH":"2022-03-13T22:16:36.060096","FILE":"3358388","ELEMENT_SET_NO":"999","LAUNCH_DATE":"2021-03-14","TLE_LINE2":"2 47869  53.0555 321.2881 0001643  70.2256 289.8910 15.06398907 56871","SITE":"AFETR","ARG_OF_PERICENTER":"70.2256","RA_OF_ASC_NODE":"321.2881","PERIAPSIS":"546.079","RCS_SIZE":"LARGE","OBJECT_TYPE":"PAYLOAD","OBJECT_ID":"2021-021K","COUNTRY_CODE":"US","INCLINATION":"53.0555","MEAN_MOTION_DDOT":"0.0000000000000","DECAY_DATE":null,"NORAD_CAT_ID":"47869","PERIOD":"95.592","MEAN_ANOMALY":"289.8910","REF_FRAME":"TEME","BSTAR":"-0.00010610000000","APOAPSIS":"548.355","CENTER_NAME":"EARTH","MEAN_ELEMENT_THEORY":"SGP4","REV_AT_EPOCH":"5687","TLE_LINE1":"1 47869U 21021K   22072.92819514 -.00001862  00000-0 -10610-3 0  9992","GP_ID":"198689078","SEMIMAJOR_AXIS":"6925.352"},{"OBJECT_ID":"2021-021L","OBJECT_TYPE":"PAYLOAD","RCS_SIZE":"LARGE","DECAY_DATE":null,"MEAN_MOTION_DDOT":"0.0000000000000","NORAD_CAT_ID":"47870","INCLINATION":"53.0541","COUNTRY_CODE":"US","CENTER_NAME":"EARTH","MEAN_ELEMENT_THEORY":"SGP4","APOAPSIS":"548.472","REF_FRAME":"TEME","MEAN_ANOMALY":"305.6207","PERIOD":"95.592","BSTAR":"0.00003347000000","TLE_LINE1":"1 47870U 21021L   22072.94616137  .00000217  00000-0  33470-4 0  9993","REV_AT_EPOCH":"5631","GP_ID":"198688825","SEMIMAJOR_AXIS":"6925.344","EPHEMERIS_TYPE":"0","ECCENTRICITY":"0.00018230","MEAN_MOTION_DOT":"0.00000217","OBJECT_NAME":"STARLINK-2326","CLASSIFICATION_TYPE":"U","ELEMENT_SET_NO":"999","EPOCH":"2022-03-13T22:42:28.342368","FILE":"3358388","TIME_SYSTEM":"UTC","MEAN_MOTION":"15.06401479","RA_OF_ASC_NODE":"346.1903","PERIAPSIS":"545.947","ARG_OF_PERICENTER":"54.4952","LAUNCH_DATE":"2021-03-14","SITE":"AFETR","TLE_LINE2":"2 47870  53.0541 346.1903 0001823  54.4952 305.6207 15.06401479 56310"},{"MEAN_MOTION":"15.06402259","TIME_SYSTEM":"UTC","ELEMENT_SET_NO":"999","FILE":"3358388","EPOCH":"2022-03-13T22:11:18.253248","SITE":"AFETR","TLE_LINE2":"2 47871  53.0554 321.3048 0001544  62.3275 297.7871 15.06402259 56760","LAUNCH_DATE":"2021-03-14","RA_OF_ASC_NODE":"321.3048","PERIAPSIS":"546.137","ARG_OF_PERICENTER":"62.3275","ECCENTRICITY":"0.00015440","EPHEMERIS_TYPE":"0","CLASSIFICATION_TYPE":"U","OBJECT_NAME":"STARLINK-2327","MEAN_MOTION_DOT":"-0.00002034","BSTAR":"-0.00011766000000","REF_FRAME":"TEME","MEAN_ANOMALY":"297.7871","PERIOD":"95.592","MEAN_ELEMENT_THEORY":"SGP4","CENTER_NAME":"EARTH","APOAPSIS":"548.276","GP_ID":"198688083","SEMIMAJOR_AXIS":"6925.342","TLE_LINE1":"1 47871U 21021M   22072.92451682 -.00002034  00000-0 -11766-3 0  9998","REV_AT_EPOCH":"5676","OBJECT_TYPE":"PAYLOAD","RCS_SIZE":"LARGE","OBJECT_ID":"2021-021M","INCLINATION":"53.0554","COUNTRY_CODE":"US","NORAD_CAT_ID":"47871","MEAN_MOTION_DDOT":"0.0000000000000","DECAY_DATE":null},{"RA_OF_ASC_NODE":"276.8552","PERIAPSIS":"482.580","ARG_OF_PERICENTER":"35.7138","SITE":"AFETR","TLE_LINE2":"2 47872  53.0650 276.8552 0002144  35.7138 324.4004 15.27245976 56918","LAUNCH_DATE":"2021-03-14","ELEMENT_SET_NO":"999","FILE":"3358283","EPOCH":"2022-03-13T21:01:20.720064","MEAN_MOTION":"15.27245976","TIME_SYSTEM":"UTC","OBJECT_NAME":"STARLINK-2328","MEAN_MOTION_DOT":"0.00196820","CLASSIFICATION_TYPE":"U","EPHEMERIS_TYPE":"0","ECCENTRICITY":"0.00021440","SEMIMAJOR_AXIS":"6862.186","GP_ID":"198664458","TLE_LINE1":"1 47872U 21021N   22072.87593426  .00196820  00000-0  70960-2 0  9991","REV_AT_EPOCH":"5691","MEAN_ELEMENT_THEORY":"SGP4","CENTER_NAME":"EARTH","APOAPSIS":"485.523","BSTAR":"0.00709600000000","REF_FRAME":"TEME","PERIOD":"94.287","MEAN_ANOMALY":"324.4004","NORAD_CAT_ID":"47872","MEAN_MOTION_DDOT":"0.0000000000000","DECAY_DATE":null,"INCLINATION":"53.0650","COUNTRY_CODE":"US","OBJECT_ID":"2021-021N","OBJECT_TYPE":"PAYLOAD","RCS_SIZE":"LARGE"},{"COUNTRY_CODE":"US","INCLINATION":"53.0602","NORAD_CAT_ID":"47873","DECAY_DATE":null,"MEAN_MOTION_DDOT":"0.0000000000000","OBJECT_TYPE":"PAYLOAD","RCS_SIZE":"LARGE","OBJECT_ID":"2021-021P","GP_ID":"198688578","SEMIMAJOR_AXIS":"6925.383","REV_AT_EPOCH":"5675","TLE_LINE1":"1 47873U 21021P   22072.90608481 -.00003195  00000-0 -19575-3 0  9994","BSTAR":"-0.00019575000000","PERIOD":"95.593","MEAN_ANOMALY":"292.3755","REF_FRAME":"TEME","APOAPSIS":"548.407","MEAN_ELEMENT_THEORY":"SGP4","CENTER_NAME":"EARTH","CLASSIFICATION_TYPE":"U","OBJECT_NAME":"STARLINK-2329","MEAN_MOTION_DOT":"-0.00003195","ECCENTRICITY":"0.00016740","EPHEMERIS_TYPE":"0","TLE_LINE2":"2 47873  53.0602 321.3722 0001674  67.7411 292.3755 15.06388798 56752","SITE":"AFETR","LAUNCH_DATE":"2021-03-14","ARG_OF_PERICENTER":"67.7411","RA_OF_ASC_NODE":"321.3722","PERIAPSIS":"546.089","MEAN_MOTION":"15.06388798","TIME_SYSTEM":"UTC","FILE":"3358388","EPOCH":"2022-03-13T21:44:45.727584","ELEMENT_SET_NO":"999"},{"BSTAR":"0.00048417000000","REF_FRAME":"TEME","PERIOD":"95.592","MEAN_ANOMALY":"302.7003","CENTER_NAME":"EARTH","MEAN_ELEMENT_THEORY":"SGP4","APOAPSIS":"548.298","GP_ID":"198689326","SEMIMAJOR_AXIS":"6925.338","REV_AT_EPOCH":"5738","TLE_LINE1":"1 47874U 21021Q   22072.84848171  .00006938  00000-0  48417-3 0  9993","OBJECT_TYPE":"PAYLOAD","RCS_SIZE":"LARGE","OBJECT_ID":"2021-021Q","INCLINATION":"53.0522","COUNTRY_CODE":"US","NORAD_CAT_ID":"47874","MEAN_MOTION_DDOT":"0.0000000000000","DECAY_DATE":null,"MEAN_MOTION":"15.06403419","TIME_SYSTEM":"UTC","ELEMENT_SET_NO":"999","FILE":"3358388","EPOCH":"2022-03-13T20:21:48.819744","SITE":"AFETR","TLE_LINE2":"2 47874  53.0522 276.6205 0001581  57.4139 302.7003 15.06403419 57382","LAUNCH_DATE":"2021-03-14","PERIAPSIS":"546.108","RA_OF_ASC_NODE":"276.6205","ARG_OF_PERICENTER":"57.4139","ECCENTRICITY":"0.00015810","EPHEMERIS_TYPE":"0","CLASSIFICATION_TYPE":"U","OBJECT_NAME":"STARLINK-2330","MEAN_MOTION_DOT":"0.00006938"},{"OBJECT_ID":"2021-021R","RCS_SIZE":"LARGE","OBJECT_TYPE":"PAYLOAD","DECAY_DATE":null,"MEAN_MOTION_DDOT":"0.0000000000000","NORAD_CAT_ID":"47875","INCLINATION":"53.0559","COUNTRY_CODE":"US","CENTER_NAME":"EARTH","MEAN_ELEMENT_THEORY":"SGP4","APOAPSIS":"548.343","REF_FRAME":"TEME","MEAN_ANOMALY":"292.4751","PERIOD":"95.593","BSTAR":"-0.00008378300000","TLE_LINE1":"1 47875U 21021R   22072.89779504 -.00001529  00000-0 -83783-4 0  9991","REV_AT_EPOCH":"5667","GP_ID":"198687583","SEMIMAJOR_AXIS":"6925.372","EPHEMERIS_TYPE":"0","ECCENTRICITY":"0.00015970","MEAN_MOTION_DOT":"-0.00001529","OBJECT_NAME":"STARLINK-2331","CLASSIFICATION_TYPE":"U","ELEMENT_SET_NO":"999","EPOCH":"2022-03-13T21:32:49.491456","FILE":"3358388","TIME_SYSTEM":"UTC","MEAN_MOTION":"15.06392302","RA_OF_ASC_NODE":"331.4200","PERIAPSIS":"546.131","ARG_OF_PERICENTER":"67.6407","LAUNCH_DATE":"2021-03-14","SITE":"AFETR","TLE_LINE2":"2 47875  53.0559 331.4200 0001597  67.6407 292.4751 15.06392302 56670"},{"SITE":"AFETR","TLE_LINE2":"2 47876  53.0557 331.4726 0001706  51.2239 308.8902 15.06399835 56629","LAUNCH_DATE":"2021-03-14","RA_OF_ASC_NODE":"331.4726","PERIAPSIS":"546.033","ARG_OF_PERICENTER":"51.2239","MEAN_MOTION":"15.06399835","TIME_SYSTEM":"UTC","ELEMENT_SET_NO":"999","FILE":"3358388","EPOCH":"2022-03-13T21:16:53.642208","CLASSIFICATION_TYPE":"U","OBJECT_NAME":"STARLINK-2332","MEAN_MOTION_DOT":"-0.00001984","ECCENTRICITY":"0.00017060","EPHEMERIS_TYPE":"0","GP_ID":"198688332","SEMIMAJOR_AXIS":"6925.349","TLE_LINE1":"1 47876U 21021S   22072.88673197 -.00001984  00000-0 -11429-3 0  9994","REV_AT_EPOCH":"5662","BSTAR":"-0.00011429000000","REF_FRAME":"TEME","MEAN_ANOMALY":"308.8902","PERIOD":"95.592","MEAN_ELEMENT_THEORY":"SGP4","CENTER_NAME":"EARTH","APOAPSIS":"548.396","INCLINATION":"53.0557","COUNTRY_CODE":"US","NORAD_CAT_ID":"47876","MEAN_MOTION_DDOT":"0.0000000000000","DECAY_DATE":null,"OBJECT_TYPE":"PAYLOAD","RCS_SIZE":"LARGE","OBJECT_ID":"2021-021S"},{"RCS_SIZE":"LARGE","OBJECT_TYPE":"PAYLOAD","OBJECT_ID":"2021-021T","INCLINATION":"53.0562","COUNTRY_CODE":"US","MEAN_MOTION_DDOT":"0.0000000000000","DECAY_DATE":null,"NORAD_CAT_ID":"47877","REF_FRAME":"TEME","PERIOD":"95.592","MEAN_ANOMALY":"300.6441","BSTAR":"-0.00010483000000","MEAN_ELEMENT_THEORY":"SGP4","CENTER_NAME":"EARTH","APOAPSIS":"548.436","TLE_LINE1":"1 47877U 21021T   22072.90147803 -.00001843  00000-0 -10483-3 0  9991","REV_AT_EPOCH":"5661","GP_ID":"198689079","SEMIMAJOR_AXIS":"6925.350","ECCENTRICITY":"0.00017620","EPHEMERIS_TYPE":"0","CLASSIFICATION_TYPE":"U","MEAN_MOTION_DOT":"-0.00001843","OBJECT_NAME":"STARLINK-2333","TIME_SYSTEM":"UTC","MEAN_MOTION":"15.06399415","ELEMENT_SET_NO":"999","EPOCH":"2022-03-13T21:38:07.701792","FILE":"3358388","LAUNCH_DATE":"2021-03-14","SITE":"AFETR","TLE_LINE2":"2 47877  53.0562 331.4038 0001762  59.4722 300.6441 15.06399415 56612","RA_OF_ASC_NODE":"331.4038","PERIAPSIS":"545.995","ARG_OF_PERICENTER":"59.4722"}];
